[{"OBJECT_NAME":"STARLINK-5984","OBJECT_ID":"2023-058N","EPOCH":"2026-03-09T22:10:52.604544","MEAN_MOTION":15.05648411,"ECCENTRICITY":0.00018782,"INCLINATION":97.604,"RA_OF_ASC_NODE":71.4743,"ARG_OF_PERICENTER":71.1743,"MEAN_ANOMALY":288.9687,"EPHEMERIS_TYPE":0,"CLASSIFICATION_TYPE":"U","NORAD_CAT_ID":56329,"ELEMENT_SET_NO":999,"REV_AT_EPOCH":15823,"BSTAR":0.00013117499,"MEAN_MOTION_DOT":1.832e-5,"MEAN_MOTION_DDOT":0},{"OBJECT_NAME":"PSLV DEB","OBJECT_ID":"2001-049CG","EPOCH":"2026-03-09T17:57:10.653408","MEAN_MOTION":15.10779615,"ECCENTRICITY":0.00259315,"INCLINATION":97.9011,"RA_OF_ASC_NODE":146.9612,"ARG_OF_PERICENTER":307.1678,"MEAN_ANOMALY":170.9563,"EPHEMERIS_TYPE":0,"CLASSIFICATION_TYPE":"U","NORAD_CAT_ID":27136,"ELEMENT_SET_NO":999,"REV_AT_EPOCH":32989,"BSTAR":0.00047952924,"MEAN_MOTION_DOT":7.956e-5,"MEAN_MOTION_DDOT":0}]
